STARLINK-37132          
1 68233U 26054B   26095.49645097  .00349258  00000+0  16857-2 0  9994
2 68233  53.1580 178.3226 0001473  47.4642 312.6505 15.81087927  3011
STARLINK-37101          
1 68234U 26054C   26095.51368205  .00162929  00000+0  10422-2 0  9991
2 68234  53.1585 178.4370 0001265  75.9217 284.1944 15.75338339  3010
STARLINK-36963          
1 68235U 26054D   26095.51822273  .00193471  00000+0  12314-2 0  9990
2 68235  53.1593 178.4672 0002119  51.0265 309.0944 15.75353923  3015
STARLINK-37127          
1 68236U 26054E   26095.52729997  .00115572  00000+0  74559-3 0  9997
2 68236  53.1589 178.5274 0001870  51.1699 308.9488 15.75307594  3019
STARLINK-37095          
1 68237U 26054F   26095.52275773  .00241864  00000+0  15278-2 0  9992
2 68237  53.1593 178.4970 0001166  90.1254 269.9900 15.75380544  3016
STARLINK-37097          
1 68238U 26054G   26095.49270690  .00201306  00000+0  99447-3 0  9990
2 68238  53.1581 178.2971 0001302  51.7228 308.3912 15.80990220  3014
STARLINK-37096          
1 68239U 26054H   26095.42723936  .00453551  00000+0  20461-2 0  9990
2 68239  53.1577 178.5979 0004502 259.8660 100.1855 15.82270487  3008
STARLINK-37092          
1 68240U 26054J   26095.50003471 -.00051048  00000+0 -33040-3 0  9991
2 68240  53.1576 178.3960 0001275  99.2994 236.7527 15.75268636  4229
STARLINK-37094          
1 68241U 26054K   26095.49045536  .00257793  00000+0  12624-2 0  9995
2 68241  53.1580 178.2819 0001334  26.5847 333.5244 15.81021245  3011
STARLINK-36356          
1 68242U 26054L   26095.50003471 -.00040631  00000+0 -26187-3 0  9993
2 68242  53.1580 178.4484 0001064  92.7476 217.5531 15.75263785  4263
STARLINK-36345          
1 68243U 26054M   26095.51788859  .00186779  00000+0  11893-2 0  9994
2 68243  53.1594 178.4645 0001617 136.2972 223.8177 15.75366438  3014
STARLINK-36310          
1 68244U 26054N   26095.48745644  .00257357  00000+0  12615-2 0  9990
2 68244  53.1585 178.2616 0001250  70.9610 289.1548 15.81000273  3013
