CCSDS_OMM_VERS = 2.0
CREATION_DATE  = 
ORIGINATOR     = 

OBJECT_NAME    = STARLINK-37132
OBJECT_ID      = 2026-054B
CENTER_NAME    = EARTH
REF_FRAME      = TEME
TIME_SYSTEM    = UTC
MEAN_ELEMENT_THEORY = SGP/SGP4

EPOCH          = 2026-04-05T11:54:53.363808
MEAN_MOTION    = 15.81087927
ECCENTRICITY   = .0001473
INCLINATION    = 53.1580
RA_OF_ASC_NODE = 178.3226
ARG_OF_PERICENTER = 47.4642
MEAN_ANOMALY   = 312.6505

EPHEMERIS_TYPE = 0
CLASSIFICATION_TYPE = U
NORAD_CAT_ID   = 68233
ELEMENT_SET_NO = 999
REV_AT_EPOCH   = 301
BSTAR          = .16857E-2
MEAN_MOTION_DOT = .349258E-2
MEAN_MOTION_DDOT = 0

CCSDS_OMM_VERS = 2.0
CREATION_DATE  = 
ORIGINATOR     = 

OBJECT_NAME    = STARLINK-37101
OBJECT_ID      = 2026-054C
CENTER_NAME    = EARTH
REF_FRAME      = TEME
TIME_SYSTEM    = UTC
MEAN_ELEMENT_THEORY = SGP/SGP4

EPOCH          = 2026-04-05T12:19:42.129120
MEAN_MOTION    = 15.75338339
ECCENTRICITY   = .0001265
INCLINATION    = 53.1585
RA_OF_ASC_NODE = 178.4370
ARG_OF_PERICENTER = 75.9217
MEAN_ANOMALY   = 284.1944

EPHEMERIS_TYPE = 0
CLASSIFICATION_TYPE = U
NORAD_CAT_ID   = 68234
ELEMENT_SET_NO = 999
REV_AT_EPOCH   = 301
BSTAR          = .10422E-2
MEAN_MOTION_DOT = .162929E-2
MEAN_MOTION_DDOT = 0

CCSDS_OMM_VERS = 2.0
CREATION_DATE  = 
ORIGINATOR     = 

OBJECT_NAME    = STARLINK-36963
OBJECT_ID      = 2026-054D
CENTER_NAME    = EARTH
REF_FRAME      = TEME
TIME_SYSTEM    = UTC
MEAN_ELEMENT_THEORY = SGP/SGP4

EPOCH          = 2026-04-05T12:26:14.443872
MEAN_MOTION    = 15.75353923
ECCENTRICITY   = .0002119
INCLINATION    = 53.1593
RA_OF_ASC_NODE = 178.4672
ARG_OF_PERICENTER = 51.0265
MEAN_ANOMALY   = 309.0944

EPHEMERIS_TYPE = 0
CLASSIFICATION_TYPE = U
NORAD_CAT_ID   = 68235
ELEMENT_SET_NO = 999
REV_AT_EPOCH   = 301
BSTAR          = .12314E-2
MEAN_MOTION_DOT = .193471E-2
MEAN_MOTION_DDOT = 0

CCSDS_OMM_VERS = 2.0
CREATION_DATE  = 
ORIGINATOR     = 

OBJECT_NAME    = STARLINK-37127
OBJECT_ID      = 2026-054E
CENTER_NAME    = EARTH
REF_FRAME      = TEME
TIME_SYSTEM    = UTC
MEAN_ELEMENT_THEORY = SGP/SGP4

EPOCH          = 2026-04-05T12:39:18.717408
MEAN_MOTION    = 15.75307594
ECCENTRICITY   = .000187
INCLINATION    = 53.1589
RA_OF_ASC_NODE = 178.5274
ARG_OF_PERICENTER = 51.1699
MEAN_ANOMALY   = 308.9488

EPHEMERIS_TYPE = 0
CLASSIFICATION_TYPE = U
NORAD_CAT_ID   = 68236
ELEMENT_SET_NO = 999
REV_AT_EPOCH   = 301
BSTAR          = .74559E-3
MEAN_MOTION_DOT = .115572E-2
MEAN_MOTION_DDOT = 0

CCSDS_OMM_VERS = 2.0
CREATION_DATE  = 
ORIGINATOR     = 

OBJECT_NAME    = STARLINK-37095
OBJECT_ID      = 2026-054F
CENTER_NAME    = EARTH
REF_FRAME      = TEME
TIME_SYSTEM    = UTC
MEAN_ELEMENT_THEORY = SGP/SGP4

EPOCH          = 2026-04-05T12:32:46.267872
MEAN_MOTION    = 15.75380544
ECCENTRICITY   = .0001166
INCLINATION    = 53.1593
RA_OF_ASC_NODE = 178.4970
ARG_OF_PERICENTER = 90.1254
MEAN_ANOMALY   = 269.9900

EPHEMERIS_TYPE = 0
CLASSIFICATION_TYPE = U
NORAD_CAT_ID   = 68237
ELEMENT_SET_NO = 999
REV_AT_EPOCH   = 301
BSTAR          = .15278E-2
MEAN_MOTION_DOT = .241864E-2
MEAN_MOTION_DDOT = 0

CCSDS_OMM_VERS = 2.0
CREATION_DATE  = 
ORIGINATOR     = 

OBJECT_NAME    = STARLINK-37097
OBJECT_ID      = 2026-054G
CENTER_NAME    = EARTH
REF_FRAME      = TEME
TIME_SYSTEM    = UTC
MEAN_ELEMENT_THEORY = SGP/SGP4

EPOCH          = 2026-04-05T11:49:29.876160
MEAN_MOTION    = 15.80990220
ECCENTRICITY   = .0001302
INCLINATION    = 53.1581
RA_OF_ASC_NODE = 178.2971
ARG_OF_PERICENTER = 51.7228
MEAN_ANOMALY   = 308.3912

EPHEMERIS_TYPE = 0
CLASSIFICATION_TYPE = U
NORAD_CAT_ID   = 68238
ELEMENT_SET_NO = 999
REV_AT_EPOCH   = 301
BSTAR          = .99447E-3
MEAN_MOTION_DOT = .201306E-2
MEAN_MOTION_DDOT = 0

CCSDS_OMM_VERS = 2.0
CREATION_DATE  = 
ORIGINATOR     = 

OBJECT_NAME    = STARLINK-37096
OBJECT_ID      = 2026-054H
CENTER_NAME    = EARTH
REF_FRAME      = TEME
TIME_SYSTEM    = UTC
MEAN_ELEMENT_THEORY = SGP/SGP4

EPOCH          = 2026-04-05T10:15:13.480704
MEAN_MOTION    = 15.82270487
ECCENTRICITY   = .0004502
INCLINATION    = 53.1577
RA_OF_ASC_NODE = 178.5979
ARG_OF_PERICENTER = 259.8660
MEAN_ANOMALY   = 100.1855

EPHEMERIS_TYPE = 0
CLASSIFICATION_TYPE = U
NORAD_CAT_ID   = 68239
ELEMENT_SET_NO = 999
REV_AT_EPOCH   = 300
BSTAR          = .20461E-2
MEAN_MOTION_DOT = .453551E-2
MEAN_MOTION_DDOT = 0

CCSDS_OMM_VERS = 2.0
CREATION_DATE  = 
ORIGINATOR     = 

OBJECT_NAME    = STARLINK-37092
OBJECT_ID      = 2026-054J
CENTER_NAME    = EARTH
REF_FRAME      = TEME
TIME_SYSTEM    = UTC
MEAN_ELEMENT_THEORY = SGP/SGP4

EPOCH          = 2026-04-05T12:00:02.998944
MEAN_MOTION    = 15.75268636
ECCENTRICITY   = .0001275
INCLINATION    = 53.1576
RA_OF_ASC_NODE = 178.3960
ARG_OF_PERICENTER = 99.2994
MEAN_ANOMALY   = 236.7527

EPHEMERIS_TYPE = 0
CLASSIFICATION_TYPE = U
NORAD_CAT_ID   = 68240
ELEMENT_SET_NO = 999
REV_AT_EPOCH   = 422
BSTAR          = -.3304E-3
MEAN_MOTION_DOT = -.51048E-3
MEAN_MOTION_DDOT = 0

CCSDS_OMM_VERS = 2.0
CREATION_DATE  = 
ORIGINATOR     = 

OBJECT_NAME    = STARLINK-37094
OBJECT_ID      = 2026-054K
CENTER_NAME    = EARTH
REF_FRAME      = TEME
TIME_SYSTEM    = UTC
MEAN_ELEMENT_THEORY = SGP/SGP4

EPOCH          = 2026-04-05T11:46:15.343104
MEAN_MOTION    = 15.81021245
ECCENTRICITY   = .0001334
INCLINATION    = 53.1580
RA_OF_ASC_NODE = 178.2819
ARG_OF_PERICENTER = 26.5847
MEAN_ANOMALY   = 333.5244

EPHEMERIS_TYPE = 0
CLASSIFICATION_TYPE = U
NORAD_CAT_ID   = 68241
ELEMENT_SET_NO = 999
REV_AT_EPOCH   = 301
BSTAR          = .12624E-2
MEAN_MOTION_DOT = .257793E-2
MEAN_MOTION_DDOT = 0

CCSDS_OMM_VERS = 2.0
CREATION_DATE  = 
ORIGINATOR     = 

OBJECT_NAME    = STARLINK-36356
OBJECT_ID      = 2026-054L
CENTER_NAME    = EARTH
REF_FRAME      = TEME
TIME_SYSTEM    = UTC
MEAN_ELEMENT_THEORY = SGP/SGP4

EPOCH          = 2026-04-05T12:00:02.998944
MEAN_MOTION    = 15.75263785
ECCENTRICITY   = .0001064
INCLINATION    = 53.1580
RA_OF_ASC_NODE = 178.4484
ARG_OF_PERICENTER = 92.7476
MEAN_ANOMALY   = 217.5531

EPHEMERIS_TYPE = 0
CLASSIFICATION_TYPE = U
NORAD_CAT_ID   = 68242
ELEMENT_SET_NO = 999
REV_AT_EPOCH   = 426
BSTAR          = -.26187E-3
MEAN_MOTION_DOT = -.40631E-3
MEAN_MOTION_DDOT = 0

CCSDS_OMM_VERS = 2.0
CREATION_DATE  = 
ORIGINATOR     = 

OBJECT_NAME    = STARLINK-36345
OBJECT_ID      = 2026-054M
CENTER_NAME    = EARTH
REF_FRAME      = TEME
TIME_SYSTEM    = UTC
MEAN_ELEMENT_THEORY = SGP/SGP4

EPOCH          = 2026-04-05T12:25:45.574176
MEAN_MOTION    = 15.75366438
ECCENTRICITY   = .0001617
INCLINATION    = 53.1594
RA_OF_ASC_NODE = 178.4645
ARG_OF_PERICENTER = 136.2972
MEAN_ANOMALY   = 223.8177

EPHEMERIS_TYPE = 0
CLASSIFICATION_TYPE = U
NORAD_CAT_ID   = 68243
ELEMENT_SET_NO = 999
REV_AT_EPOCH   = 301
BSTAR          = .11893E-2
MEAN_MOTION_DOT = .186779E-2
MEAN_MOTION_DDOT = 0

CCSDS_OMM_VERS = 2.0
CREATION_DATE  = 
ORIGINATOR     = 

OBJECT_NAME    = STARLINK-36310
OBJECT_ID      = 2026-054N
CENTER_NAME    = EARTH
REF_FRAME      = TEME
TIME_SYSTEM    = UTC
MEAN_ELEMENT_THEORY = SGP/SGP4

EPOCH          = 2026-04-05T11:41:56.236416
MEAN_MOTION    = 15.81000273
ECCENTRICITY   = .000125
INCLINATION    = 53.1585
RA_OF_ASC_NODE = 178.2616
ARG_OF_PERICENTER = 70.9610
MEAN_ANOMALY   = 289.1548

EPHEMERIS_TYPE = 0
CLASSIFICATION_TYPE = U
NORAD_CAT_ID   = 68244
ELEMENT_SET_NO = 999
REV_AT_EPOCH   = 301
BSTAR          = .12615E-2
MEAN_MOTION_DOT = .257357E-2
MEAN_MOTION_DDOT = 0

